start=new Date('2023-03-08T00:00:00.000Z').valueOf();
sats=[{"TIME_SYSTEM":"UTC","MEAN_MOTION":"15.08852223","OBJECT_TYPE":"PAYLOAD","RA_OF_ASC_NODE":"193.2727","LAUNCH_DATE":"2022-09-19","EPOCH":"2023-03-07T17:30:59.584320","TLE_LINE2":"2 53820  53.2171 193.2727 0000951  84.6684 275.4417 15.08852223 27073","BSTAR":"0.00012390000000","COUNTRY_CODE":"US","PERIAPSIS":"539.050","REF_FRAME":"TEME","CLASSIFICATION_TYPE":"U","MEAN_ANOMALY":"275.4417","DECAY_DATE":null,"INCLINATION":"53.2171","SEMIMAJOR_AXIS":"6917.843","SITE":"AFETR","CENTER_NAME":"EARTH","MEAN_MOTION_DDOT":"0.0000000000000","REV_AT_EPOCH":"2707","GP_ID":"227677626","FILE":"3854072","APOAPSIS":"540.366","ELEMENT_SET_NO":"999","ARG_OF_PERICENTER":"84.6684","MEAN_MOTION_DOT":"0.00001685","RCS_SIZE":"LARGE","EPHEMERIS_TYPE":"0","MEAN_ELEMENT_THEORY":"SGP4","OBJECT_NAME":"STARLINK-4758","TLE_LINE1":"1 53820U 22114C   23066.72985630  .00001685  00000-0  12390-3 0  9993","ECCENTRICITY":"0.00009510","NORAD_CAT_ID":"53820","PERIOD":"95.437","OBJECT_ID":"2022-114C"},{"TIME_SYSTEM":"UTC","MEAN_MOTION":"15.44673810","OBJECT_TYPE":"PAYLOAD","RA_OF_ASC_NODE":"140.3198","LAUNCH_DATE":"2022-09-19","EPOCH":"2023-03-07T22:00:00.999936","TLE_LINE2":"2 53821  53.2145 140.3198 0001294  83.8544 236.3273 15.44673810  1304","COUNTRY_CODE":"US","BSTAR":"-0.01487600000000","PERIAPSIS":"431.457","REF_FRAME":"TEME","CLASSIFICATION_TYPE":"U","MEAN_ANOMALY":"236.3273","DECAY_DATE":null,"INCLINATION":"53.2145","SEMIMAJOR_AXIS":"6810.474","SITE":"AFETR","CENTER_NAME":"EARTH","MEAN_MOTION_DDOT":"0.0000000000000","REV_AT_EPOCH":"130","GP_ID":"227676891","FILE":"3854072","APOAPSIS":"433.220","ELEMENT_SET_NO":"999","ARG_OF_PERICENTER":"83.8544","MEAN_MOTION_DOT":"-0.00648766","RCS_SIZE":"LARGE","EPHEMERIS_TYPE":"0","MEAN_ELEMENT_THEORY":"SGP4","OBJECT_NAME":"STARLINK-4752","TLE_LINE1":"1 53821U 22114D   23066.91667824 -.00648766  00000-0 -14876-1 0  9995","ECCENTRICITY":"0.00012940","NORAD_CAT_ID":"53821","OBJECT_ID":"2022-114D","PERIOD":"93.224"},{"CLASSIFICATION_TYPE":"U","MEAN_ANOMALY":"82.5349","REF_FRAME":"TEME","BSTAR":"0.00167270000000","COUNTRY_CODE":"US","PERIAPSIS":"539.068","TLE_LINE2":"2 53823  53.2174 146.9758 0001125 115.4889  82.5349 15.08806898  1308","EPOCH":"2023-03-07T22:00:00.999936","LAUNCH_DATE":"2022-09-19","OBJECT_TYPE":"PAYLOAD","RA_OF_ASC_NODE":"146.9758","TIME_SYSTEM":"UTC","MEAN_MOTION":"15.08806898","SITE":"AFETR","SEMIMAJOR_AXIS":"6917.982","INCLINATION":"53.2174","DECAY_DATE":null,"ELEMENT_SET_NO":"999","APOAPSIS":"540.625","FILE":"3854072","GP_ID":"227677140","REV_AT_EPOCH":"130","MEAN_MOTION_DDOT":"0.0000000000000","CENTER_NAME":"EARTH","OBJECT_ID":"2022-114F","PERIOD":"95.440","NORAD_CAT_ID":"53823","OBJECT_NAME":"STARLINK-4748","TLE_LINE1":"1 53823U 22114F   23066.91667824  .00026409  00000-0  16727-2 0  9997","ECCENTRICITY":"0.00011250","MEAN_ELEMENT_THEORY":"SGP4","RCS_SIZE":"LARGE","EPHEMERIS_TYPE":"0","MEAN_MOTION_DOT":"0.00026409","ARG_OF_PERICENTER":"115.4889"},{"DECAY_DATE":null,"SITE":"AFETR","SEMIMAJOR_AXIS":"6917.844","INCLINATION":"53.2173","EPOCH":"2023-03-07T20:25:49.825632","LAUNCH_DATE":"2022-09-19","RA_OF_ASC_NODE":"192.6107","OBJECT_TYPE":"PAYLOAD","MEAN_MOTION":"15.08851768","TIME_SYSTEM":"UTC","MEAN_ANOMALY":"256.4178","CLASSIFICATION_TYPE":"U","REF_FRAME":"TEME","PERIAPSIS":"538.926","BSTAR":"0.00019821000000","COUNTRY_CODE":"US","TLE_LINE2":"2 53824  53.2173 192.6107 0001133 103.6941 256.4178 15.08851768 26553","MEAN_ELEMENT_THEORY":"SGP4","EPHEMERIS_TYPE":"0","RCS_SIZE":"LARGE","MEAN_MOTION_DOT":"0.00002869","ARG_OF_PERICENTER":"103.6941","OBJECT_ID":"2022-114G","PERIOD":"95.437","NORAD_CAT_ID":"53824","ECCENTRICITY":"0.00011330","TLE_LINE1":"1 53824U 22114G   23066.85127113  .00002869  00000-0  19821-3 0  9996","OBJECT_NAME":"STARLINK-4757","REV_AT_EPOCH":"2655","CENTER_NAME":"EARTH","MEAN_MOTION_DDOT":"0.0000000000000","ELEMENT_SET_NO":"999","APOAPSIS":"540.493","FILE":"3854041","GP_ID":"227650834"},{"DECAY_DATE":null,"SITE":"AFETR","SEMIMAJOR_AXIS":"6917.842","INCLINATION":"53.2177","LAUNCH_DATE":"2022-09-19","EPOCH":"2023-03-07T17:20:22.689312","RA_OF_ASC_NODE":"193.2263","OBJECT_TYPE":"PAYLOAD","TIME_SYSTEM":"UTC","MEAN_MOTION":"15.08852407","MEAN_ANOMALY":"266.1773","CLASSIFICATION_TYPE":"U","REF_FRAME":"TEME","PERIAPSIS":"539.013","BSTAR":"0.00011232000000","COUNTRY_CODE":"US","TLE_LINE2":"2 53825  53.2177 193.2263 0001004  93.9334 266.1773 15.08852407 27070","MEAN_ELEMENT_THEORY":"SGP4","EPHEMERIS_TYPE":"0","RCS_SIZE":"LARGE","MEAN_MOTION_DOT":"0.00001501","ARG_OF_PERICENTER":"93.9334","PERIOD":"95.437","OBJECT_ID":"2022-114H","NORAD_CAT_ID":"53825","ECCENTRICITY":"0.00010040","OBJECT_NAME":"STARLINK-4751","TLE_LINE1":"1 53825U 22114H   23066.72248483  .00001501  00000-0  11232-3 0  9997","REV_AT_EPOCH":"2707","MEAN_MOTION_DDOT":"0.0000000000000","CENTER_NAME":"EARTH","ELEMENT_SET_NO":"999","FILE":"3854072","APOAPSIS":"540.402","GP_ID":"227678126"},{"MEAN_MOTION_DDOT":"0.0000000000000","CENTER_NAME":"EARTH","REV_AT_EPOCH":"2702","GP_ID":"227676392","APOAPSIS":"540.784","FILE":"3854072","ELEMENT_SET_NO":"999","ARG_OF_PERICENTER":"105.1426","MEAN_MOTION_DOT":"0.00001060","RCS_SIZE":"LARGE","EPHEMERIS_TYPE":"0","MEAN_ELEMENT_THEORY":"SGP4","OBJECT_NAME":"STARLINK-4756","TLE_LINE1":"1 53826U 22114J   23066.37286720  .00001060  00000-0  84647-4 0  9996","ECCENTRICITY":"0.00015210","NORAD_CAT_ID":"53826","PERIOD":"95.437","OBJECT_ID":"2022-114J","TIME_SYSTEM":"UTC","MEAN_MOTION":"15.08844403","OBJECT_TYPE":"PAYLOAD","RA_OF_ASC_NODE":"194.5988","EPOCH":"2023-03-07T08:56:55.726080","LAUNCH_DATE":"2022-09-19","TLE_LINE2":"2 53826  53.2164 194.5988 0001521 105.1426 254.9734 15.08844403 27021","COUNTRY_CODE":"US","BSTAR":"0.00008464700000","PERIAPSIS":"538.680","REF_FRAME":"TEME","CLASSIFICATION_TYPE":"U","MEAN_ANOMALY":"254.9734","DECAY_DATE":null,"INCLINATION":"53.2164","SEMIMAJOR_AXIS":"6917.867","SITE":"AFETR"},{"TLE_LINE1":"1 53827U 22114K   23066.71512133  .00031581  00000-0  19927-2 0  9993","OBJECT_NAME":"STARLINK-4764","ECCENTRICITY":"0.00010940","NORAD_CAT_ID":"53827","PERIOD":"95.437","OBJECT_ID":"2022-114K","ARG_OF_PERICENTER":"110.3612","MEAN_MOTION_DOT":"0.00031581","RCS_SIZE":"LARGE","EPHEMERIS_TYPE":"0","MEAN_ELEMENT_THEORY":"SGP4","GP_ID":"227676641","FILE":"3854072","APOAPSIS":"540.458","ELEMENT_SET_NO":"999","CENTER_NAME":"EARTH","MEAN_MOTION_DDOT":"0.0000000000000","REV_AT_EPOCH":"2707","INCLINATION":"53.2215","SEMIMAJOR_AXIS":"6917.836","SITE":"AFETR","DECAY_DATE":null,"TLE_LINE2":"2 53827  53.2215 193.1812 0001094 110.3612 249.7498 15.08854596 27078","COUNTRY_CODE":"US","BSTAR":"0.00199270000000","PERIAPSIS":"538.944","REF_FRAME":"TEME","CLASSIFICATION_TYPE":"U","MEAN_ANOMALY":"249.7498","MEAN_MOTION":"15.08854596","TIME_SYSTEM":"UTC","OBJECT_TYPE":"PAYLOAD","RA_OF_ASC_NODE":"193.1812","EPOCH":"2023-03-07T17:09:46.482912","LAUNCH_DATE":"2022-09-19"},{"TLE_LINE2":"2 53828  53.2149 193.0869 0001886 119.9913 240.1266 15.08856909 27072","PERIAPSIS":"538.389","BSTAR":"0.00038589000000","COUNTRY_CODE":"US","REF_FRAME":"TEME","MEAN_ANOMALY":"240.1266","CLASSIFICATION_TYPE":"U","MEAN_MOTION":"15.08856909","TIME_SYSTEM":"UTC","RA_OF_ASC_NODE":"193.0869","OBJECT_TYPE":"PAYLOAD","EPOCH":"2023-03-07T16:48:32.673024","LAUNCH_DATE":"2022-09-19","INCLINATION":"53.2149","SEMIMAJOR_AXIS":"6917.829","SITE":"AFETR","DECAY_DATE":null,"GP_ID":"227677888","FILE":"3854072","APOAPSIS":"540.998","ELEMENT_SET_NO":"999","MEAN_MOTION_DDOT":"0.0000000000000","CENTER_NAME":"EARTH","REV_AT_EPOCH":"2707","ECCENTRICITY":"0.00018860","TLE_LINE1":"1 53828U 22114L   23066.70037816  .00005862  00000-0  38589-3 0  9992","OBJECT_NAME":"STARLINK-4760","NORAD_CAT_ID":"53828","OBJECT_ID":"2022-114L","PERIOD":"95.436","ARG_OF_PERICENTER":"119.9913","MEAN_MOTION_DOT":"0.00005862","EPHEMERIS_TYPE":"0","RCS_SIZE":"LARGE","MEAN_ELEMENT_THEORY":"SGP4"},{"DECAY_DATE":null,"SITE":"AFETR","SEMIMAJOR_AXIS":"6917.982","INCLINATION":"53.2174","LAUNCH_DATE":"2022-09-19","EPOCH":"2023-03-07T21:50:40.373664","RA_OF_ASC_NODE":"192.2650","OBJECT_TYPE":"PAYLOAD","TIME_SYSTEM":"UTC","MEAN_MOTION":"15.08806616","MEAN_ANOMALY":"289.9124","CLASSIFICATION_TYPE":"U","REF_FRAME":"TEME","PERIAPSIS":"538.775","BSTAR":"-0.00033883000000","COUNTRY_CODE":"US","TLE_LINE2":"2 53829  53.2174 192.2650 0001550  70.2035 289.9124 15.08806616 26569","MEAN_ELEMENT_THEORY":"SGP4","EPHEMERIS_TYPE":"0","RCS_SIZE":"LARGE","MEAN_MOTION_DOT":"-0.00005671","ARG_OF_PERICENTER":"70.2035","OBJECT_ID":"2022-114M","PERIOD":"95.440","NORAD_CAT_ID":"53829","ECCENTRICITY":"0.00015500","OBJECT_NAME":"STARLINK-4759","TLE_LINE1":"1 53829U 22114M   23066.91018951 -.00005671  00000-0 -33883-3 0  9997","REV_AT_EPOCH":"2656","CENTER_NAME":"EARTH","MEAN_MOTION_DDOT":"0.0000000000000","ELEMENT_SET_NO":"999","APOAPSIS":"540.920","FILE":"3854046","GP_ID":"227651308"},{"REF_FRAME":"TEME","CLASSIFICATION_TYPE":"U","MEAN_ANOMALY":"273.1583","TLE_LINE2":"2 53830  53.2174 192.4489 0000951  86.9518 273.1583 15.08887657 26554","BSTAR":"0.00334330000000","COUNTRY_CODE":"US","PERIAPSIS":"538.942","OBJECT_TYPE":"PAYLOAD","RA_OF_ASC_NODE":"192.4489","LAUNCH_DATE":"2022-09-19","EPOCH":"2023-03-07T19:48:42.183072","TIME_SYSTEM":"UTC","MEAN_MOTION":"15.08887657","SITE":"AFETR","INCLINATION":"53.2174","SEMIMAJOR_AXIS":"6917.735","DECAY_DATE":null,"ELEMENT_SET_NO":"999","GP_ID":"227650842","FILE":"3854046","APOAPSIS":"540.258","MEAN_MOTION_DDOT":"0.0000000000000","CENTER_NAME":"EARTH","REV_AT_EPOCH":"2655","NORAD_CAT_ID":"53830","PERIOD":"95.435","OBJECT_ID":"2022-114N","OBJECT_NAME":"STARLINK-4761","TLE_LINE1":"1 53830U 22114N   23066.82548823  .00053393  00000-0  33433-2 0  9997","ECCENTRICITY":"0.00009510","RCS_SIZE":"LARGE","EPHEMERIS_TYPE":"0","MEAN_ELEMENT_THEORY":"SGP4","ARG_OF_PERICENTER":"86.9518","MEAN_MOTION_DOT":"0.00053393"}];
